ONEWEB-0665             
1 55825U 23029AF  24294.85928573  .00000272  00000+0  69989-3 0  9993
2 55825  87.9014  49.8917 0001964 103.3002 256.8347 13.14501804 80014
ONEWEB-0666             
1 55826U 23029AG  24295.25201510  .00000055  00000+0  10433-3 0  9993
2 55826  87.9295  34.6118 0001348  99.6757 260.4528 13.20772213 81431
ONEWEB-0667             
1 55827U 23029AH  24295.24568869  .00000141  00000+0  31564-3 0  9990
2 55827  87.9295  34.5465 0001977 104.0470 256.0884 13.20775850 81422
ONEWEB-0669             
1 55828U 23029AJ  24295.24095671  .00000110  00000+0  23877-3 0  9991
2 55828  87.9294  34.5841 0001296 123.3126 236.8131 13.20775550 81424
ONEWEB-0670             
1 55829U 23029AK  24295.29378960  .00000113  00000+0  26996-3 0  9990
2 55829  87.9016  49.8148 0001936 111.4532 248.6804 13.14503873 80096
ONEWEB-0671             
1 55830U 23029AL  24295.33438873 -.00000353  00000+0 -91290-3 0  9994
2 55830  87.9156  65.0637 0001880 105.1248 255.0092 13.19727621 79259
ONEWEB-0672             
1 55831U 23029AM  24295.23622180 -.00000051  00000+0 -15677-3 0  9990
2 55831  87.9296  34.5697 0001491  98.3069 261.8234 13.20771926 81428
ONEWEB-0673             
1 55832U 23029AN  24295.31068224  .00000206  00000+0  48337-3 0  9992
2 55832  87.9154  65.0347 0001952  92.8965 267.2391 13.19728342 79253
